{"type": "FeatureCollection", "features": [{"type": "Feature", "properties": {"norad_id": 36828, "name": "BEIDOU-2 IGSO-1 (C06)", "group": "beidou", "lat": -13.057109610763332, "lon": -5.878494286300155, "alt_km": 35583.89295879757, "timestamp": "2025-12-26T10:30:50.532630+00:00", "meta": {"OBJECT_NAME": "BEIDOU-2 IGSO-1 (C06)", "OBJECT_ID": "2010-036A", "EPOCH": "2025-12-25T21:06:51.904224", "MEAN_MOTION": 1.00272533, "ECCENTRICITY": 0.00515074, "INCLINATION": 54.2892, "RA_OF_ASC_NODE": 164.5291, "ARG_OF_PERICENTER": 215.7944, "MEAN_ANOMALY": 138.9488, "EPHEMERIS_TYPE": 0, "CLASSIFICATION_TYPE": "U", "NORAD_CAT_ID": 36828, "ELEMENT_SET_NO": 999, "REV_AT_EPOCH": 5635, "BSTAR": 0, "MEAN_MOTION_DOT": -5.2e-07, "MEAN_MOTION_DDOT": 0}, "tle": {"line1": "1 36828U 10036A   25359.87976741 -.00000052  00000+0  00000+0 0  9996", "line2": "2 36828  54.2892 164.5291 0051507 215.7944 138.9488  1.00272533 56350"}}, "geometry": {"type": "Point", "coordinates": [-5.878494286300155, -13.057109610763332]}}, {"type": "Feature", "properties": {"norad_id": 37210, "name": "BEIDOU-2 G4 (C04)", "group": "beidou", "lat": -0.9215787148564955, "lon": 53.05701799080426, "alt_km": 35824.218386488166, "timestamp": "2025-12-26T10:30:50.532653+00:00", "meta": {"OBJECT_NAME": "BEIDOU-2 G4 (C04)", "OBJECT_ID": "2010-057A", "EPOCH": "2025-12-26T05:23:59.678592", "MEAN_MOTION": 1.00271369, "ECCENTRICITY": 0.001045, "INCLINATION": 3.2158, "RA_OF_ASC_NODE": 69.8869, "ARG_OF_PERICENTER": 194.0651, "MEAN_ANOMALY": 72.1025, "EPHEMERIS_TYPE": 0, "CLASSIFICATION_TYPE": "U", "NORAD_CAT_ID": 37210, "ELEMENT_SET_NO": 999, "REV_AT_EPOCH": 5555, "BSTAR": 0, "MEAN_MOTION_DOT": -9.1e-07, "MEAN_MOTION_DDOT": 0}, "tle": {"line1": "1 37210U 10057A   25360.22499628 -.00000091  00000+0  00000+0 0  9993", "line2": "2 37210   3.2158  69.8869 0010450 194.0651  72.1025  1.00271369 55552"}}, "geometry": {"type": "Point", "coordinates": [53.05701799080426, -0.9215787148564955]}}, {"type": "Feature", "properties": {"norad_id": 37256, "name": "BEIDOU-2 IGSO-2 (C07)", "group": "beidou", "lat": 47.77791299645606, "lon": -1.1747794500959152, "alt_km": 35906.69396041806, "timestamp": "2025-12-26T10:30:50.532667+00:00", "meta": {"OBJECT_NAME": "BEIDOU-2 IGSO-2 (C07)", "OBJECT_ID": "2010-068A", "EPOCH": "2025-12-26T05:49:55.295904", "MEAN_MOTION": 1.00282085, "ECCENTRICITY": 0.0048328, "INCLINATION": 47.8612, "RA_OF_ASC_NODE": 273.9839, "ARG_OF_PERICENTER": 216.056, "MEAN_ANOMALY": 160.5314, "EPHEMERIS_TYPE": 0, "CLASSIFICATION_TYPE": "U", "NORAD_CAT_ID": 37256, "ELEMENT_SET_NO": 999, "REV_AT_EPOCH": 5506, "BSTAR": 0, "MEAN_MOTION_DOT": -2e-06, "MEAN_MOTION_DDOT": 0}, "tle": {"line1": "1 37256U 10068A   25360.24300111 -.00000200  00000+0  00000+0 0  9997", "line2": "2 37256  47.8612 273.9839 0048328 216.0560 160.5314  1.00282085 55061"}}, "geometry": {"type": "Point", "coordinates": [-1.1747794500959152, 47.77791299645606]}}, {"type": "Feature", "properties": {"norad_id": 37384, "name": "BEIDOU-2 IGSO-3 (C08)", "group": "beidou", "lat": -35.8437458067627, "lon": 19.383726643830705, "alt_km": 35888.40591283262, "timestamp": "2025-12-26T10:30:50.532680+00:00", "meta": {"OBJECT_NAME": "BEIDOU-2 IGSO-3 (C08)", "OBJECT_ID": "2011-013A", "EPOCH": "2025-12-24T13:36:08.179776", "MEAN_MOTION": 1.00268125, "ECCENTRICITY": 0.00352821, "INCLINATION": 62.1584, "RA_OF_ASC_NODE": 41.8043, "ARG_OF_PERICENTER": 187.8377, "MEAN_ANOMALY": 174.9924, "EPHEMERIS_TYPE": 0, "CLASSIFICATION_TYPE": "U", "NORAD_CAT_ID": 37384, "ELEMENT_SET_NO": 999, "REV_AT_EPOCH": 5391, "BSTAR": 0, "MEAN_MOTION_DOT": -1.63e-06, "MEAN_MOTION_DDOT": 0}, "tle": {"line1": "1 37384U 11013A   25358.56676134 -.00000163  00000+0  00000+0 0  9991", "line2": "2 37384  62.1584  41.8043 0035282 187.8377 174.9924  1.00268125 53913"}}, "geometry": {"type": "Point", "coordinates": [19.383726643830705, -35.8437458067627]}}, {"type": "Feature", "properties": {"norad_id": 37763, "name": "BEIDOU-2 IGSO-4 (C09)", "group": "beidou", "lat": 0.684065524901664, "lon": -13.274429688610958, "alt_km": 35383.10777622858, "timestamp": "2025-12-26T10:30:50.532693+00:00", "meta": {"OBJECT_NAME": "BEIDOU-2 IGSO-4 (C09)", "OBJECT_ID": "2011-038A", "EPOCH": "2025-12-21T10:06:26.864064", "MEAN_MOTION": 1.00280083, "ECCENTRICITY": 0.01491557, "INCLINATION": 54.5854, "RA_OF_ASC_NODE": 167.2693, "ARG_OF_PERICENTER": 230.0944, "MEAN_ANOMALY": 299.1265, "EPHEMERIS_TYPE": 0, "CLASSIFICATION_TYPE": "U", "NORAD_CAT_ID": 37763, "ELEMENT_SET_NO": 999, "REV_AT_EPOCH": 5286, "BSTAR": 0, "MEAN_MOTION_DOT": 5.9e-07, "MEAN_MOTION_DDOT": 0}, "tle": {"line1": "1 37763U 11038A   25355.42114426  .00000059  00000+0  00000+0 0  9995", "line2": "2 37763  54.5854 167.2693 0149155 230.0944 299.1265  1.00280083 52867"}}, "geometry": {"type": "Point", "coordinates": [-13.274429688610958, 0.684065524901664]}}, {"type": "Feature", "properties": {"norad_id": 37948, "name": "BEIDOU-2 IGSO-5 (C10)", "group": "beidou", "lat": 45.075729548230804, "lon": -21.897006430333835, "alt_km": 36174.47194675355, "timestamp": "2025-12-26T10:30:50.532707+00:00", "meta": {"OBJECT_NAME": "BEIDOU-2 IGSO-5 (C10)", "OBJECT_ID": "2011-073A", "EPOCH": "2025-12-25T17:46:48.300384", "MEAN_MOTION": 1.00288091, "ECCENTRICITY": 0.01096686, "INCLINATION": 47.9959, "RA_OF_ASC_NODE": 273.6993, "ARG_OF_PERICENTER": 222.1113, "MEAN_ANOMALY": 319.0848, "EPHEMERIS_TYPE": 0, "CLASSIFICATION_TYPE": "U", "NORAD_CAT_ID": 37948, "ELEMENT_SET_NO": 999, "REV_AT_EPOCH": 5139, "BSTAR": 0, "MEAN_MOTION_DOT": -1.42e-06, "MEAN_MOTION_DDOT": 0}, "tle": {"line1": "1 37948U 11073A   25359.74083681 -.00000142  00000+0  00000+0 0  9990", "line2": "2 37948  47.9959 273.6993 0109668 222.1113 319.0848  1.00288091 51397"}}, "geometry": {"type": "Point", "coordinates": [-21.897006430333835, 45.075729548230804]}}, {"type": "Feature", "properties": {"norad_id": 38091, "name": "BEIDOU-2 G5 (C05)", "group": "beidou", "lat": -2.7632759978775185, "lon": -48.39845856748525, "alt_km": 35732.07339829462, "timestamp": "2025-12-26T10:30:50.532719+00:00", "meta": {"OBJECT_NAME": "BEIDOU-2 G5 (C05)", "OBJECT_ID": "2012-008A", "EPOCH": "2025-12-25T21:54:09.656928", "MEAN_MOTION": 1.00270052, "ECCENTRICITY": 0.001313, "INCLINATION": 3.1399, "RA_OF_ASC_NODE": 70.6602, "ARG_OF_PERICENTER": 232.1831, "MEAN_ANOMALY": 179.0905, "EPHEMERIS_TYPE": 0, "CLASSIFICATION_TYPE": "U", "NORAD_CAT_ID": 38091, "ELEMENT_SET_NO": 999, "REV_AT_EPOCH": 5063, "BSTAR": 0, "MEAN_MOTION_DOT": 7.8e-07, "MEAN_MOTION_DDOT": 0}, "tle": {"line1": "1 38091U 12008A   25359.91261177  .00000078  00000+0  00000+0 0  9993", "line2": "2 38091   3.1399  70.6602 0013130 232.1831 179.0905  1.00270052 50639"}}, "geometry": {"type": "Point", "coordinates": [-48.39845856748525, -2.7632759978775185]}}, {"type": "Feature", "properties": {"norad_id": 38250, "name": "BEIDOU-2 M3 (C11)", "group": "beidou", "lat": 54.587838910095996, "lon": 58.568974129776564, "alt_km": 21588.87896096096, "timestamp": "2025-12-26T10:30:50.532731+00:00", "meta": {"OBJECT_NAME": "BEIDOU-2 M3 (C11)", "OBJECT_ID": "2012-018A", "EPOCH": "2025-12-24T03:22:03.617760", "MEAN_MOTION": 1.86230154, "ECCENTRICITY": 0.00241099, "INCLINATION": 55.9106, "RA_OF_ASC_NODE": 310.7747, "ARG_OF_PERICENTER": 275.3713, "MEAN_ANOMALY": 84.3565, "EPHEMERIS_TYPE": 0, "CLASSIFICATION_TYPE": "U", "NORAD_CAT_ID": 38250, "ELEMENT_SET_NO": 999, "REV_AT_EPOCH": 9268, "BSTAR": 0, "MEAN_MOTION_DOT": -5.3e-07, "MEAN_MOTION_DDOT": 0}, "tle": {"line1": "1 38250U 12018A   25358.14031965 -.00000053  00000+0  00000+0 0  9999", "line2": "2 38250  55.9106 310.7747 0024109 275.3713  84.3565  1.86230154 92685"}}, "geometry": {"type": "Point", "coordinates": [58.568974129776564, 54.587838910095996]}}, {"type": "Feature", "properties": {"norad_id": 38251, "name": "BEIDOU-2 M4 (C12)", "group": "beidou", "lat": 27.703807520598453, "lon": 109.01714253188094, "alt_km": 21554.235586446157, "timestamp": "2025-12-26T10:30:50.532742+00:00", "meta": {"OBJECT_NAME": "BEIDOU-2 M4 (C12)", "OBJECT_ID": "2012-018B", "EPOCH": "2025-12-26T05:17:08.054304", "MEAN_MOTION": 1.86229703, "ECCENTRICITY": 0.0015168, "INCLINATION": 55.8098, "RA_OF_ASC_NODE": 309.9329, "ARG_OF_PERICENTER": 279.718, "MEAN_ANOMALY": 80.1169, "EPHEMERIS_TYPE": 0, "CLASSIFICATION_TYPE": "U", "NORAD_CAT_ID": 38251, "ELEMENT_SET_NO": 999, "REV_AT_EPOCH": 9272, "BSTAR": 0, "MEAN_MOTION_DOT": -5.5e-07, "MEAN_MOTION_DDOT": 0}, "tle": {"line1": "1 38251U 12018B   25360.22023211 -.00000055  00000+0  00000+0 0  9999", "line2": "2 38251  55.8098 309.9329 0015168 279.7180  80.1169  1.86229703 92729"}}, "geometry": {"type": "Point", "coordinates": [109.01714253188094, 27.703807520598453]}}, {"type": "Feature", "properties": {"norad_id": 38775, "name": "BEIDOU-2 M6 (C14)", "group": "beidou", "lat": -16.6448388150446, "lon": 57.173874212431414, "alt_km": 21498.486038509927, "timestamp": "2025-12-26T10:30:50.532753+00:00", "meta": {"OBJECT_NAME": "BEIDOU-2 M6 (C14)", "OBJECT_ID": "2012-050B", "EPOCH": "2025-12-24T07:41:05.368128", "MEAN_MOTION": 1.86230801, "ECCENTRICITY": 0.00114872, "INCLINATION": 56.388, "RA_OF_ASC_NODE": 68.6832, "ARG_OF_PERICENTER": 343.1884, "MEAN_ANOMALY": 16.8281, "EPHEMERIS_TYPE": 0, "CLASSIFICATION_TYPE": "U", "NORAD_CAT_ID": 38775, "ELEMENT_SET_NO": 999, "REV_AT_EPOCH": 9005, "BSTAR": 0, "MEAN_MOTION_DOT": -2.4e-07, "MEAN_MOTION_DDOT": 0}, "tle": {"line1": "1 38775U 12050B   25358.32020102 -.00000024  00000+0  00000+0 0  9996", "line2": "2 38775  56.3880  68.6832 0011487 343.1884  16.8281  1.86230801 90056"}}, "geometry": {"type": "Point", "coordinates": [57.173874212431414, -16.6448388150446]}}]}